STARLINK-35476          
1 66825U 25280E   25346.83335648 -.01673460  00000+0 -10453-1 0  9996
2 66825  69.9933 198.5643 0003627 271.9150 273.1309 15.79771041  2769
STARLINK-35898          
1 66826U 25280F   25346.83335648 -.01679253  00000+0 -10484-1 0  9997
2 66826  69.9933 198.5619 0003546 268.5834 278.2916 15.79794425  2912
STARLINK-35959          
1 66827U 25280G   25346.83335648 -.01679648  00000+0 -10486-1 0  9998
2 66827  69.9931 198.5594 0003701 272.6903 276.2033 15.79794376  2912
STARLINK-35982          
1 66828U 25280H   25346.83335648 -.01706907  00000+0 -10689-1 0  9993
2 66828  69.9931 198.5545 0003616 272.0194 281.0729 15.79784341  2917
STARLINK-36084          
1 66829U 25280J   25346.83335648 -.01702163  00000+0 -10650-1 0  9992
2 66829  69.9930 198.5569 0003605 273.4571 277.5374 15.79792609  2759
STARLINK-35881          
1 66830U 25280K   25346.83335648 -.01700600  00000+0 -10633-1 0  9999
2 66830  69.9926 198.5518 0003508 276.1020 278.7868 15.79805407  2911
STARLINK-35788          
1 66831U 25280L   25346.83335648 -.01750142  00000+0 -10718-1 0  9990
2 66831  69.9935 198.5503 0003621 270.0850 286.6266 15.79833976  2918
STARLINK-35768          
1 66832U 25280M   25346.83335648 -.01703374  00000+0 -10628-1 0  9996
2 66832  69.9929 198.5475 0003646 273.5297 284.9660 15.79855527  2915
STARLINK-35858          
1 66833U 25280N   25346.83335648 -.01749777  00000+0 -10709-1 0  9994
2 66833  69.9931 198.5454 0003667 270.6200 290.0012 15.79845008  2913
STARLINK-35840          
1 66834U 25280P   25346.83335648 -.01756186  00000+0 -10742-1 0  9994
2 66834  69.9927 198.5427 0003658 268.1971 294.2549 15.79868520  2911
STARLINK-35890          
1 66835U 25280Q   25346.83335648 -.01758588  00000+0 -10755-1 0  9997
2 66835  69.9924 198.5400 0003827 270.4748 293.9543 15.79873339  2910
STARLINK-35838          
1 66836U 25280R   25346.83335648 -.01766475  00000+0 -10810-1 0  9994
2 66836  69.9923 198.5373 0003771 270.3284 296.1428 15.79873517  2916
