CCSDS_OMM_VERS = 2.0
CREATION_DATE  = 
ORIGINATOR     = 

OBJECT_NAME    = STARLINK-35476
OBJECT_ID      = 2025-280E
CENTER_NAME    = EARTH
REF_FRAME      = TEME
TIME_SYSTEM    = UTC
MEAN_ELEMENT_THEORY = SGP/SGP4

EPOCH          = 2025-12-12T20:00:01.999872
MEAN_MOTION    = 15.79771041
ECCENTRICITY   = .00036273
INCLINATION    = 69.9933
RA_OF_ASC_NODE = 198.5643
ARG_OF_PERICENTER = 271.9150
MEAN_ANOMALY   = 273.1309

EPHEMERIS_TYPE = 0
CLASSIFICATION_TYPE = U
NORAD_CAT_ID   = 66825
ELEMENT_SET_NO = 999
REV_AT_EPOCH   = 276
BSTAR          = -.10452723E-1
MEAN_MOTION_DOT = -.167346E-1
MEAN_MOTION_DDOT = 0

CCSDS_OMM_VERS = 2.0
CREATION_DATE  = 
ORIGINATOR     = 

OBJECT_NAME    = STARLINK-35898
OBJECT_ID      = 2025-280F
CENTER_NAME    = EARTH
REF_FRAME      = TEME
TIME_SYSTEM    = UTC
MEAN_ELEMENT_THEORY = SGP/SGP4

EPOCH          = 2025-12-12T20:00:01.999872
MEAN_MOTION    = 15.79794425
ECCENTRICITY   = .00035466
INCLINATION    = 69.9933
RA_OF_ASC_NODE = 198.5619
ARG_OF_PERICENTER = 268.5834
MEAN_ANOMALY   = 278.2916

EPHEMERIS_TYPE = 0
CLASSIFICATION_TYPE = U
NORAD_CAT_ID   = 66826
ELEMENT_SET_NO = 999
REV_AT_EPOCH   = 291
BSTAR          = -.1048395E-1
MEAN_MOTION_DOT = -.1679253E-1
MEAN_MOTION_DDOT = 0

CCSDS_OMM_VERS = 2.0
CREATION_DATE  = 
ORIGINATOR     = 

OBJECT_NAME    = STARLINK-35959
OBJECT_ID      = 2025-280G
CENTER_NAME    = EARTH
REF_FRAME      = TEME
TIME_SYSTEM    = UTC
MEAN_ELEMENT_THEORY = SGP/SGP4

EPOCH          = 2025-12-12T20:00:01.999872
MEAN_MOTION    = 15.79794376
ECCENTRICITY   = .00037011
INCLINATION    = 69.9931
RA_OF_ASC_NODE = 198.5594
ARG_OF_PERICENTER = 272.6903
MEAN_ANOMALY   = 276.2033

EPHEMERIS_TYPE = 0
CLASSIFICATION_TYPE = U
NORAD_CAT_ID   = 66827
ELEMENT_SET_NO = 999
REV_AT_EPOCH   = 291
BSTAR          = -.10485584E-1
MEAN_MOTION_DOT = -.1679648E-1
MEAN_MOTION_DDOT = 0

CCSDS_OMM_VERS = 2.0
CREATION_DATE  = 
ORIGINATOR     = 

OBJECT_NAME    = STARLINK-35982
OBJECT_ID      = 2025-280H
CENTER_NAME    = EARTH
REF_FRAME      = TEME
TIME_SYSTEM    = UTC
MEAN_ELEMENT_THEORY = SGP/SGP4

EPOCH          = 2025-12-12T20:00:01.999872
MEAN_MOTION    = 15.79784341
ECCENTRICITY   = .00036163
INCLINATION    = 69.9931
RA_OF_ASC_NODE = 198.5545
ARG_OF_PERICENTER = 272.0194
MEAN_ANOMALY   = 281.0729

EPHEMERIS_TYPE = 0
CLASSIFICATION_TYPE = U
NORAD_CAT_ID   = 66828
ELEMENT_SET_NO = 999
REV_AT_EPOCH   = 291
BSTAR          = -.10688711E-1
MEAN_MOTION_DOT = -.1706907E-1
MEAN_MOTION_DDOT = 0

CCSDS_OMM_VERS = 2.0
CREATION_DATE  = 
ORIGINATOR     = 

OBJECT_NAME    = STARLINK-36084
OBJECT_ID      = 2025-280J
CENTER_NAME    = EARTH
REF_FRAME      = TEME
TIME_SYSTEM    = UTC
MEAN_ELEMENT_THEORY = SGP/SGP4

EPOCH          = 2025-12-12T20:00:01.999872
MEAN_MOTION    = 15.79792609
ECCENTRICITY   = .0003605
INCLINATION    = 69.9930
RA_OF_ASC_NODE = 198.5569
ARG_OF_PERICENTER = 273.4571
MEAN_ANOMALY   = 277.5374

EPHEMERIS_TYPE = 0
CLASSIFICATION_TYPE = U
NORAD_CAT_ID   = 66829
ELEMENT_SET_NO = 999
REV_AT_EPOCH   = 275
BSTAR          = -.10650274E-1
MEAN_MOTION_DOT = -.1702163E-1
MEAN_MOTION_DDOT = 0

CCSDS_OMM_VERS = 2.0
CREATION_DATE  = 
ORIGINATOR     = 

OBJECT_NAME    = STARLINK-35881
OBJECT_ID      = 2025-280K
CENTER_NAME    = EARTH
REF_FRAME      = TEME
TIME_SYSTEM    = UTC
MEAN_ELEMENT_THEORY = SGP/SGP4

EPOCH          = 2025-12-12T20:00:01.999872
MEAN_MOTION    = 15.79805407
ECCENTRICITY   = .00035083
INCLINATION    = 69.9926
RA_OF_ASC_NODE = 198.5518
ARG_OF_PERICENTER = 276.1020
MEAN_ANOMALY   = 278.7868

EPHEMERIS_TYPE = 0
CLASSIFICATION_TYPE = U
NORAD_CAT_ID   = 66830
ELEMENT_SET_NO = 999
REV_AT_EPOCH   = 291
BSTAR          = -.10633459E-1
MEAN_MOTION_DOT = -.17006E-1
MEAN_MOTION_DDOT = 0

CCSDS_OMM_VERS = 2.0
CREATION_DATE  = 
ORIGINATOR     = 

OBJECT_NAME    = STARLINK-35788
OBJECT_ID      = 2025-280L
CENTER_NAME    = EARTH
REF_FRAME      = TEME
TIME_SYSTEM    = UTC
MEAN_ELEMENT_THEORY = SGP/SGP4

EPOCH          = 2025-12-12T20:00:01.999872
MEAN_MOTION    = 15.79833976
ECCENTRICITY   = .00036219
INCLINATION    = 69.9935
RA_OF_ASC_NODE = 198.5503
ARG_OF_PERICENTER = 270.0850
MEAN_ANOMALY   = 286.6266

EPHEMERIS_TYPE = 0
CLASSIFICATION_TYPE = U
NORAD_CAT_ID   = 66831
ELEMENT_SET_NO = 999
REV_AT_EPOCH   = 291
BSTAR          = -.10717603E-1
MEAN_MOTION_DOT = -.1750142E-1
MEAN_MOTION_DDOT = 0

CCSDS_OMM_VERS = 2.0
CREATION_DATE  = 
ORIGINATOR     = 

OBJECT_NAME    = STARLINK-35768
OBJECT_ID      = 2025-280M
CENTER_NAME    = EARTH
REF_FRAME      = TEME
TIME_SYSTEM    = UTC
MEAN_ELEMENT_THEORY = SGP/SGP4

EPOCH          = 2025-12-12T20:00:01.999872
MEAN_MOTION    = 15.79855527
ECCENTRICITY   = .00036462
INCLINATION    = 69.9929
RA_OF_ASC_NODE = 198.5475
ARG_OF_PERICENTER = 273.5297
MEAN_ANOMALY   = 284.9660

EPHEMERIS_TYPE = 0
CLASSIFICATION_TYPE = U
NORAD_CAT_ID   = 66832
ELEMENT_SET_NO = 999
REV_AT_EPOCH   = 291
BSTAR          = -.10627894E-1
MEAN_MOTION_DOT = -.1703374E-1
MEAN_MOTION_DDOT = 0

CCSDS_OMM_VERS = 2.0
CREATION_DATE  = 
ORIGINATOR     = 

OBJECT_NAME    = STARLINK-35858
OBJECT_ID      = 2025-280N
CENTER_NAME    = EARTH
REF_FRAME      = TEME
TIME_SYSTEM    = UTC
MEAN_ELEMENT_THEORY = SGP/SGP4

EPOCH          = 2025-12-12T20:00:01.999872
MEAN_MOTION    = 15.79845008
ECCENTRICITY   = .00036676
INCLINATION    = 69.9931
RA_OF_ASC_NODE = 198.5454
ARG_OF_PERICENTER = 270.6200
MEAN_ANOMALY   = 290.0012

EPHEMERIS_TYPE = 0
CLASSIFICATION_TYPE = U
NORAD_CAT_ID   = 66833
ELEMENT_SET_NO = 999
REV_AT_EPOCH   = 291
BSTAR          = -.10709306E-1
MEAN_MOTION_DOT = -.1749777E-1
MEAN_MOTION_DDOT = 0

CCSDS_OMM_VERS = 2.0
CREATION_DATE  = 
ORIGINATOR     = 

OBJECT_NAME    = STARLINK-35840
OBJECT_ID      = 2025-280P
CENTER_NAME    = EARTH
REF_FRAME      = TEME
TIME_SYSTEM    = UTC
MEAN_ELEMENT_THEORY = SGP/SGP4

EPOCH          = 2025-12-12T20:00:01.999872
MEAN_MOTION    = 15.79868520
ECCENTRICITY   = .00036589
INCLINATION    = 69.9927
RA_OF_ASC_NODE = 198.5427
ARG_OF_PERICENTER = 268.1971
MEAN_ANOMALY   = 294.2549

EPHEMERIS_TYPE = 0
CLASSIFICATION_TYPE = U
NORAD_CAT_ID   = 66834
ELEMENT_SET_NO = 999
REV_AT_EPOCH   = 291
BSTAR          = -.10742176E-1
MEAN_MOTION_DOT = -.1756186E-1
MEAN_MOTION_DDOT = 0

CCSDS_OMM_VERS = 2.0
CREATION_DATE  = 
ORIGINATOR     = 

OBJECT_NAME    = STARLINK-35890
OBJECT_ID      = 2025-280Q
CENTER_NAME    = EARTH
REF_FRAME      = TEME
TIME_SYSTEM    = UTC
MEAN_ELEMENT_THEORY = SGP/SGP4

EPOCH          = 2025-12-12T20:00:01.999872
MEAN_MOTION    = 15.79873339
ECCENTRICITY   = .00038273
INCLINATION    = 69.9924
RA_OF_ASC_NODE = 198.5400
ARG_OF_PERICENTER = 270.4748
MEAN_ANOMALY   = 293.9543

EPHEMERIS_TYPE = 0
CLASSIFICATION_TYPE = U
NORAD_CAT_ID   = 66835
ELEMENT_SET_NO = 999
REV_AT_EPOCH   = 291
BSTAR          = -.10755167E-1
MEAN_MOTION_DOT = -.1758588E-1
MEAN_MOTION_DDOT = 0

CCSDS_OMM_VERS = 2.0
CREATION_DATE  = 
ORIGINATOR     = 

OBJECT_NAME    = STARLINK-35838
OBJECT_ID      = 2025-280R
CENTER_NAME    = EARTH
REF_FRAME      = TEME
TIME_SYSTEM    = UTC
MEAN_ELEMENT_THEORY = SGP/SGP4

EPOCH          = 2025-12-12T20:00:01.999872
MEAN_MOTION    = 15.79873517
ECCENTRICITY   = .00037714
INCLINATION    = 69.9923
RA_OF_ASC_NODE = 198.5373
ARG_OF_PERICENTER = 270.3284
MEAN_ANOMALY   = 296.1428

EPHEMERIS_TYPE = 0
CLASSIFICATION_TYPE = U
NORAD_CAT_ID   = 66836
ELEMENT_SET_NO = 999
REV_AT_EPOCH   = 291
BSTAR          = -.10810178E-1
MEAN_MOTION_DOT = -.1766475E-1
MEAN_MOTION_DDOT = 0

